[{"OBJECT_NAME":"STARLINK-2171","OBJECT_ID":"2021-017AJ","EPOCH":"2026-03-10T00:00:02.999808","MEAN_MOTION":15.70905931,"ECCENTRICITY":0.0002371,"INCLINATION":53.0436,"RA_OF_ASC_NODE":167.0252,"ARG_OF_PERICENTER":165.5816,"MEAN_ANOMALY":179.0332,"EPHEMERIS_TYPE":0,"CLASSIFICATION_TYPE":"U","NORAD_CAT_ID":47754,"ELEMENT_SET_NO":999,"REV_AT_EPOCH":590,"BSTAR":0.00011207161,"MEAN_MOTION_DOT":0.00013697,"MEAN_MOTION_DDOT":0},{"OBJECT_NAME":"STARLINK-11570 [DTC]","OBJECT_ID":"2025-031M","EPOCH":"2026-03-09T03:34:08.089536","MEAN_MOTION":15.70851747,"ECCENTRICITY":0.00016749,"INCLINATION":43.0002,"RA_OF_ASC_NODE":5.0477,"ARG_OF_PERICENTER":271.9961,"MEAN_ANOMALY":88.0715,"EPHEMERIS_TYPE":0,"CLASSIFICATION_TYPE":"U","NORAD_CAT_ID":62992,"ELEMENT_SET_NO":999,"REV_AT_EPOCH":6264,"BSTAR":0.0012121471,"MEAN_MOTION_DOT":0.00158159,"MEAN_MOTION_DDOT":0}]
